NORAD_CAT_ID,OBJECT_NAME,OBJECT_TYPE,EPOCH,MEAN_MOTION,ECCENTRICITY,INCLINATION,RA_OF_ASC_NODE,ARG_OF_PERICENTER,MEAN_ANOMALY,BSTAR,MEAN_MOTION_DOT,MEAN_MOTION_DDOT,TLE_LINE0,TLE_LINE1,TLE_LINE2,SEMIMAJOR_AXIS,PERIOD,APOGEE,PERIGEE,DECAYED
52991.0,STARLINK-4285,PAYLOAD,2022-07-12 16:00:00,15.87835016,0.003143,53.2174,354.5936,54.6545,168.935,-0.0041456,-0.01189188,0.0004029,0 STARLINK-4285,1 52991U 22076F   22193.66667824 -.01189188  40290-3 -41456-2 0  9993,2 52991  53.2174 354.5936 0031430  54.6545 168.9350 15.87835016  1305,6686.491,90.69,329.372,287.34,0.0
52991.0,STARLINK-4285,PAYLOAD,2022-07-13 04:00:00,15.866955,0.0027269,53.2175,352.0665,56.4833,145.82299999999995,-0.0044312,-0.01188115,0.00039806,0 STARLINK-4285,1 52991U 22076F   22194.16667824 -.01188115  39806-3 -44312-2 0  9993,2 52991  53.2175 352.0665 0027269  56.4833 145.8230 15.86695500  1372,6689.691999999999,90.755,329.7990000000001,293.315,0.0
52991.0,STARLINK-4285,PAYLOAD,2022-07-13 14:00:01,15.85721956,0.0023238,53.2177,349.965,55.1476,7.8616,-0.0044875,-0.01137625,0.00036462,0 STARLINK-4285,1 52991U 22076F   22194.58334491 -.01137625  36462-3 -44875-2 0  9999,2 52991  53.2177 349.9650 0023238  55.1476   7.8616 15.85721956  1306,6692.43,90.81,329.847,298.743,0.0
52991.0,STARLINK-4285,PAYLOAD,2022-07-13 22:00:00,15.84971773,0.0020084,53.2173,348.2866,56.369,110.1653,-0.004759,-0.01038033,0.0,0 STARLINK-4285,1 52991U 22076F   22194.91667824 -.01038033  00000-0 -47590-2 0  9991,2 52991  53.2173 348.2866 0020084  56.3690 110.1653 15.84971773  1302,6694.541,90.853,329.852,302.961,0.0
52991.0,STARLINK-4285,PAYLOAD,2022-07-14 08:00:01,15.84019198,0.0016645,53.2172,346.1875,54.9252,329.7403,-0.0049915,-0.01033135,0.0,0 STARLINK-4285,1 52991U 22076F   22195.33334491 -.01033135  00000-0 -49915-2 0  9990,2 52991  53.2172 346.1875 0016645  54.9252 329.7403 15.84019198  1567,6697.225,90.908,330.237,307.942,0.0
52991.0,STARLINK-4285,PAYLOAD,2022-07-14 14:00:01,15.83455676,0.0014379,53.2175,344.9323,52.8578,317.9967,-0.0051903,-0.01040665,0.0,0 STARLINK-4285,1 52991U 22076F   22195.58334491 -.01040665  00000-0 -51903-2 0  9993,2 52991  53.2175 344.9323 0014379  52.8578 317.9967 15.83455676  1304,6698.814,90.94,330.311,311.046,0.0
52991.0,STARLINK-4285,PAYLOAD,2022-07-14 22:00:00,15.82685339,0.0010946,53.2172,343.2596,51.6636,59.9848,-0.0052871,-0.01019324,0.0,0 STARLINK-4285,1 52991U 22076F   22195.91667824 -.01019324  00000-0 -52871-2 0  9992,2 52991  53.2172 343.2596 0010946  51.6636  59.9848 15.82685339  1652,6700.986999999999,90.985,330.1869999999999,315.517,0.0
52991.0,STARLINK-4285,PAYLOAD,2022-07-15 14:00:01,15.81191631,0.0005854,53.2176,339.9167,37.7158,272.7691,-0.0059601,-0.01059949,0.0,0 STARLINK-4285,1 52991U 22076F   22196.58334491 -.01059949  00000-0 -59601-2 0  9992,2 52991  53.2176 339.9167 0005854  37.7158 272.7691 15.81191631  1767,6705.206999999999,91.071,330.997,323.146,0.0
52991.0,STARLINK-4285,PAYLOAD,2022-07-15 22:00:00,15.80416055,0.0003996,53.2171,338.2491,23.9868,24.5562,-0.0060019,-0.01031537,0.0,0 STARLINK-4285,1 52991U 22076F   22196.91667824 -.01031537  00000-0 -60019-2 0  9996,2 52991  53.2171 338.2491 0003996  23.9868  24.5562 15.80416055  1303,6707.4,91.115,331.945,326.585,0.0
52991.0,STARLINK-4285,PAYLOAD,2022-07-16 14:00:01,15.78902125,0.0003429,53.2174,334.9179,6.0258,235.8841,-0.0064931,-0.01057237,0.0,0 STARLINK-4285,1 52991U 22076F   22197.58334491 -.01057237  00000-0 -64931-2 0  9993,2 52991  53.2174 334.9179 0003429   6.0258 235.8841 15.78902125  1300,6711.687,91.203,335.8540000000001,331.251,0.0
52991.0,STARLINK-4285,PAYLOAD,2022-07-16 22:00:00,15.78145012,0.000285,53.2172,333.2558,7.7612,329.4624,-0.0067376999999999,-0.01059354,0.0,0 STARLINK-4285,1 52991U 22076F   22197.91667824 -.01059354  00000-0 -67377-2 0  9998,2 52991  53.2172 333.2558 0002850   7.7612 329.4624 15.78145012  1976,6713.834,91.246,337.612,333.785,0.0
52991.0,STARLINK-4285,PAYLOAD,2022-07-17 14:00:01,15.76621875,0.0003476,53.2176,329.9357,7.2843,157.8337,-0.0071672,-0.01053273,0.0,0 STARLINK-4285,1 52991U 22076F   22198.58334491 -.01053273  00000-0 -71672-2 0  9990,2 52991  53.2176 329.9357 0003476   7.2843 157.8337 15.76621875  2075,6718.156999999997,91.335,342.357,337.6869999999999,0.0
52991.0,STARLINK-4285,PAYLOAD,2022-07-17 22:00:00,15.75867136,0.0003356,53.2171,328.279,5.9941,251.6991,-0.007468,-0.01060388,0.0,0 STARLINK-4285,1 52991U 22076F   22198.91667824 -.01060388  00000-0 -74680-2 0  9993,2 52991  53.2171 328.2790 0003356   5.9941 251.6991 15.75867136  1309,6720.302,91.378,344.422,339.911,0.0
52991.0,STARLINK-4285,PAYLOAD,2022-07-18 06:00:00,15.75103098,0.0001250999999999,53.2172,326.622,32.6879,316.6729,-0.0076748999999999,-0.01053309,0.0,0 STARLINK-4285,1 52991U 22076F   22199.25001157 -.01053309  00000-0 -76749-2 0  9995,2 52991  53.2172 326.6220 0001251  32.6879 316.6729 15.75103098  2187,6722.475,91.423,345.181,343.499,0.0
52991.0,STARLINK-4285,PAYLOAD,2022-07-18 14:00:01,15.74327298,0.0001511,53.2173,324.9706,37.7012,42.4133,-0.0076381,-0.01017128,0.0,0 STARLINK-4285,1 52991U 22076F   22199.58334491 -.01017128  00000-0 -76381-2 0  9992,2 52991  53.2173 324.9706 0001511  37.7012  42.4133 15.74327298  1307,6724.683000000001,91.468,347.564,345.532,0.0
52991.0,STARLINK-4285,PAYLOAD,2022-07-18 22:00:00,15.73478458,0.0001633,53.2173,323.3193,38.3616,131.6,-0.002775,-0.00377619,0.0,0 STARLINK-4285,1 52991U 22076F   22199.91667824 -.00377619  00000-0 -27750-2 0  9997,2 52991  53.2173 323.3193 0001633  38.3616 131.6000 15.73478458  2288,6727.101,91.517,350.065,347.86800000000005,0.0
52991.0,STARLINK-4285,PAYLOAD,2022-07-19 06:00:00,15.73203141,0.0001089,53.2174,321.6674,79.0076,180.051,1.2241e-05,1.099e-05,0.0,0 STARLINK-4285,1 52991U 22076F   22200.25001157  .00001099  00000-0  12241-4 0  9993,2 52991  53.2174 321.6674 0001089  79.0076 180.0510 15.73203141  2347,6727.886,91.533,350.4840000000001,349.019,0.0
52991.0,STARLINK-4285,PAYLOAD,2022-07-19 14:00:01,15.73292757,0.0001419,53.2194,320.0249,43.2649,304.8196,-0.00055323,-0.00077855,0.0,0 STARLINK-4285,1 52991U 22076F   22200.58334491 -.00077855  00000-0 -55323-3 0  9991,2 52991  53.2194 320.0249 0001419  43.2649 304.8196 15.73292757  2398,6727.630999999999,91.528,350.45,348.541,0.0
52991.0,STARLINK-4285,PAYLOAD,2022-07-19 22:00:00,15.73205503,0.0001308,53.2171,318.37,53.8578,23.0673,-1.1707e-05,-2.263e-05,0.0,0 STARLINK-4285,1 52991U 22076F   22200.91667824 -.00002263  00000-0 -11707-4 0  9997,2 52991  53.2171 318.3700 0001308  53.8578  23.0673 15.73205503  1303,6727.879,91.533,350.624,348.86400000000015,0.0
52991.0,STARLINK-4285,PAYLOAD,2022-07-20 06:00:00,15.73117028,0.0001359,53.2189,316.7241,50.6731,115.344,0.00059628,0.00083602,0.0,0 STARLINK-4285,1 52991U 22076F   22201.25001157  .00083602  00000-0  59628-3 0  9993,2 52991  53.2189 316.7241 0001359  50.6731 115.3440 15.73117028  2498,6728.132,91.538,350.911,349.082,0.0
52991.0,STARLINK-4285,PAYLOAD,2022-07-20 14:00:01,15.73152171,0.0001588999999999,53.219,315.0768,45.7088,209.1745,0.00098614,0.00139818,0.0,0 STARLINK-4285,1 52991U 22076F   22201.58334491  .00139818  00000-0  98614-3 0  9998,2 52991  53.2190 315.0768 0001589  45.7088 209.1745 15.73152171  1308,6728.031999999997,91.536,350.966,348.827,0.0
52991.0,STARLINK-4285,PAYLOAD,2022-07-20 22:00:01,15.7330374,0.0001528,53.2181,313.4248,40.2629,303.5667,-0.0015449,-0.0021299,0.0,0 STARLINK-4285,1 52991U 22076F   22201.91668981 -.00212990  00000-0 -15449-2 0  9998,2 52991  53.2181 313.4248 0001528  40.2629 303.5667 15.73303740  1309,6727.599,91.527,350.492,348.436,0.0
52991.0,STARLINK-4285,PAYLOAD,2022-07-21 06:00:00,15.73200438,0.0001372,53.2193,311.7759,43.6351,29.1129,0.00028079,0.0003897,0.0,0 STARLINK-4285,1 52991U 22076F   22202.25001157  .00038970  00000-0  28079-3 0  9998,2 52991  53.2193 311.7759 0001372  43.6351  29.1129 15.73200438  2659,6727.894,91.533,350.682,348.836,0.0
52991.0,STARLINK-4285,PAYLOAD,2022-07-21 14:00:01,15.73199731,0.0001535,53.219,310.1283,31.5692,130.1716,-0.00031679,-0.00044843,0.0,0 STARLINK-4285,1 52991U 22076F   22202.58335648 -.00044843  00000-0 -31679-3 0  9997,2 52991  53.2190 310.1283 0001535  31.5692 130.1716 15.73199731  2700,6727.896,91.533,350.7940000000001,348.728,0.0
52991.0,STARLINK-4285,PAYLOAD,2022-07-21 22:00:00,15.73198522,0.0001471,53.2185,308.4785,27.8746,222.7057,5.3674e-05,6.918e-05,0.0,0 STARLINK-4285,1 52991U 22076F   22202.91667824  .00006918  00000-0  53674-4 0  9997,2 52991  53.2185 308.4785 0001471  27.8746 222.7057 15.73198522  2767,6727.899,91.533,350.754,348.775,0.0
52991.0,STARLINK-4285,PAYLOAD,2022-07-22 06:00:00,15.73207843,0.0001346,53.2188,306.8276,35.0006,304.5124,0.00044705,0.0006261,0.0,0 STARLINK-4285,1 52991U 22076F   22203.25001157  .00062610  00000-0  44705-3 0  9991,2 52991  53.2188 306.8276 0001346  35.0006 304.5124 15.73207843  1308,6727.873000000001,91.533,350.64300000000014,348.832,0.0
52991.0,STARLINK-4285,PAYLOAD,2022-07-22 12:00:00,15.73271363,0.0001571999999999,53.2189,305.5921,34.6419,281.5869,-0.00070516,-0.00098735,0.0,0 STARLINK-4285,1 52991U 22076F   22203.50001157 -.00098735  00000-0 -70516-3 0  9997,2 52991  53.2189 305.5921 0001572  34.6419 281.5869 15.73271363  2855,6727.691999999999,91.529,350.61400000000015,348.499,0.0
52991.0,STARLINK-4285,PAYLOAD,2022-07-22 22:00:00,15.73258135,0.0001796,53.2191,303.53,36.5488,120.9202,-0.00058663,-0.00082358,0.0,0 STARLINK-4285,1 52991U 22076F   22203.91667824 -.00082358  00000-0 -58663-3 0  9994,2 52991  53.2191 303.5300 0001796  36.5488 120.9202 15.73258135  2918,6727.729,91.53,350.80300000000005,348.386,0.0
52991.0,STARLINK-4285,PAYLOAD,2022-07-23 14:00:01,15.73140927,0.0001817,53.2192,300.2318,31.8031,303.5958,-0.00017839,-0.00025518,0.0,0 STARLINK-4285,1 52991U 22076F   22204.58335648 -.00025518  00000-0 -17839-3 0  9999,2 52991  53.2192 300.2318 0001817  31.8031 303.5958 15.73140927  1306,6728.064,91.537,351.151,348.706,0.0
